{
  "norad_id": 68612,
  "name": "STARLINK-36386",
  "history": [
    {
      "epoch": "2026-04-16T22:14:59.227296Z",
      "apogee_km": 329.0692599842032,
      "perigee_km": 327.0309814707307,
      "latitude_deg": 2.3972218416838845e-05,
      "longitude_deg": 125.73935198923853,
      "height_km": 331.3069441617296,
      "semi_major_axis_km": 6706.187120727467,
      "eccentricity": 0.00015197,
      "inclination_deg": 97.2847,
      "raan_deg": 304.5539,
      "arg_perigee_deg": 94.6896,
      "mean_anomaly_deg": 265.4546,
      "mean_motion_rev_day": 15.80844895
    }
  ]
}