STARLINK-36386          
1 68612U 26073L   26106.92707439  .00134550  00000+0  69148-3 0  9995
2 68612  97.2847 304.5539 0001519  94.6896 265.4546 15.80844895  1576
